{"type": "FeatureCollection", "features": [ {"type": "Feature", "properties": {"norad_id": 30888, "name": "FENGYUN 1C DEB", "group": "fengyun-1c-debris", "lat": 6.73155255095276, "lon": 137.63645794345786, "alt_km": 530.8687941484113, "timestamp": "2025-12-05T05:43:15.388862+00:00", "meta": {"OBJECT_NAME": "FENGYUN 1C DEB", "OBJECT_ID": "1999-025AYA", "EPOCH": "2025-12-04T16:05:11.252832", "MEAN_MOTION": 14.93601757, "ECCENTRICITY": 0.0083067, "INCLINATION": 99.4819, "RA_OF_ASC_NODE": 315.8218, "ARG_OF_PERICENTER": 176.6996, "MEAN_ANOMALY": 183.4784, "EPHEMERIS_TYPE": 0, "CLASSIFICATION_TYPE": "U", "NORAD_CAT_ID": 30888, "ELEMENT_SET_NO": 999, "REV_AT_EPOCH": 99805, "BSTAR": 0.0024668, "MEAN_MOTION_DOT": 0.00027876, "MEAN_MOTION_DDOT": 0}, "tle": {"line1": "1 30888U 99025AYA 25338.67026913  .00027876  00000+0  24668-2 0  9994", "line2": "2 30888  99.4819 315.8218 0083067 176.6996 183.4784 14.93601757998054"}}, "geometry": {"type": "Point", "coordinates": [137.63645794345786, 6.73155255095276]}}, {"type": "Feature", "properties": {"norad_id": 30891, "name": "FENGYUN 1C DEB", "group": "fengyun-1c-debris", "lat": -56.27905868403974, "lon": 40.48327560861525, "alt_km": 883.2158240940971, "timestamp": "2025-12-05T05:43:15.388872+00:00", "meta": {"OBJECT_NAME": "FENGYUN 1C DEB", "OBJECT_ID": "1999-025AYD", "EPOCH": "2025-12-04T09:33:55.467360", "MEAN_MOTION": 14.058367, "ECCENTRICITY": 0.0054923, "INCLINATION": 98.786, "RA_OF_ASC_NODE": 26.271, "ARG_OF_PERICENTER": 211.122, "MEAN_ANOMALY": 163.0493, "EPHEMERIS_TYPE": 0, "CLASSIFICATION_TYPE": "U", "NORAD_CAT_ID": 30891, "ELEMENT_SET_NO": 999, "REV_AT_EPOCH": 95865, "BSTAR": 0.0011967, "MEAN_MOTION_DOT": 1.94e-05, "MEAN_MOTION_DDOT": 0}, "tle": {"line1": "1 30891U 99025AYD 25338.39855865  .00001940  00000+0  11967-2 0  9995", "line2": "2 30891  98.7860  26.2710 0054923 211.1220 163.0493 14.05836700958654"}}, "geometry": {"type": "Point", "coordinates": [40.48327560861525, -56.27905868403974]}}, {"type": "Feature", "properties": {"norad_id": 30892, "name": "FENGYUN 1C DEB", "group": "fengyun-1c-debris", "lat": -39.77258920927907, "lon": 93.59792119495776, "alt_km": 808.7679024130257, "timestamp": "2025-12-05T05:43:15.388883+00:00", "meta": {"OBJECT_NAME": "FENGYUN 1C DEB", "OBJECT_ID": "1999-025AYE", "EPOCH": "2025-12-02T15:45:32.268672", "MEAN_MOTION": 14.18893658, "ECCENTRICITY": 0.00376287, "INCLINATION": 99.6617, "RA_OF_ASC_NODE": 278.9389, "ARG_OF_PERICENTER": 217.7485, "MEAN_ANOMALY": 142.1047, "EPHEMERIS_TYPE": 0, "CLASSIFICATION_TYPE": "U", "NORAD_CAT_ID": 30892, "ELEMENT_SET_NO": 999, "REV_AT_EPOCH": 64160, "BSTAR": 0.00053864396, "MEAN_MOTION_DOT": 1.078e-05, "MEAN_MOTION_DDOT": 0}, "tle": {"line1": "1 30892U 99025AYE 25336.65662348  .00001078  00000+0  53864-3 0  9990", "line2": "2 30892  99.6617 278.9389 0037628 217.7485 142.1047 14.18893658641607"}}, "geometry": {"type": "Point", "coordinates": [93.59792119495776, -39.77258920927907]}}, {"type": "Feature", "properties": {"norad_id": 30893, "name": "FENGYUN 1C DEB", "group": "fengyun-1c-debris", "lat": -71.8495696558054, "lon": 160.8970168862952, "alt_km": 1091.6670206999843, "timestamp": "2025-12-05T05:43:15.388893+00:00", "meta": {"OBJECT_NAME": "FENGYUN 1C DEB", "OBJECT_ID": "1999-025AYF", "EPOCH": "2025-12-02T20:30:20.002752", "MEAN_MOTION": 13.94024671, "ECCENTRICITY": 0.03097292, "INCLINATION": 98.2578, "RA_OF_ASC_NODE": 5.0563, "ARG_OF_PERICENTER": 120.5117, "MEAN_ANOMALY": 53.6004, "EPHEMERIS_TYPE": 0, "CLASSIFICATION_TYPE": "U", "NORAD_CAT_ID": 30893, "ELEMENT_SET_NO": 999, "REV_AT_EPOCH": 94747, "BSTAR": 0.00087162992, "MEAN_MOTION_DOT": 1.681e-05, "MEAN_MOTION_DDOT": 0}, "tle": {"line1": "1 30893U 99025AYF 25336.85439818  .00001681  00000+0  87163-3 0  9996", "line2": "2 30893  98.2578   5.0563 0309729 120.5117  53.6004 13.94024671947476"}}, "geometry": {"type": "Point", "coordinates": [160.8970168862952, -71.8495696558054]}}, {"type": "Feature", "properties": {"norad_id": 30895, "name": "FENGYUN 1C DEB", "group": "fengyun-1c-debris", "lat": -35.42959162669583, "lon": -138.57771726894268, "alt_km": 735.8835266452288, "timestamp": "2025-12-05T05:43:15.388903+00:00", "meta": {"OBJECT_NAME": "FENGYUN 1C DEB", "OBJECT_ID": "1999-025AYH", "EPOCH": "2025-12-04T10:35:10.256352", "MEAN_MOTION": 14.31511948, "ECCENTRICITY": 0.021794, "INCLINATION": 98.721, "RA_OF_ASC_NODE": 46.8904, "ARG_OF_PERICENTER": 148.3922, "MEAN_ANOMALY": 278.6723, "EPHEMERIS_TYPE": 0, "CLASSIFICATION_TYPE": "U", "NORAD_CAT_ID": 30895, "ELEMENT_SET_NO": 999, "REV_AT_EPOCH": 97674, "BSTAR": 0.0010521, "MEAN_MOTION_DOT": 3.583e-05, "MEAN_MOTION_DDOT": 0}, "tle": {"line1": "1 30895U 99025AYH 25338.44109093  .00003583  00000+0  10521-2 0  9990", "line2": "2 30895  98.7210  46.8904 0217940 148.3922 278.6723 14.31511948976742"}}, "geometry": {"type": "Point", "coordinates": [-138.57771726894268, -35.42959162669583]}}, {"type": "Feature", "properties": {"norad_id": 30898, "name": "FENGYUN 1C DEB", "group": "fengyun-1c-debris", "lat": 74.08902382236539, "lon": 103.1030534810362, "alt_km": 474.23423996348265, "timestamp": "2025-12-05T05:43:15.388913+00:00", "meta": {"OBJECT_NAME": "FENGYUN 1C DEB", "OBJECT_ID": "1999-025AYL", "EPOCH": "2025-12-01T23:52:01.976448", "MEAN_MOTION": 15.20079673, "ECCENTRICITY": 0.00399108, "INCLINATION": 99.0257, "RA_OF_ASC_NODE": 245.335, "ARG_OF_PERICENTER": 146.5036, "MEAN_ANOMALY": 213.873, "EPHEMERIS_TYPE": 0, "CLASSIFICATION_TYPE": "U", "NORAD_CAT_ID": 30898, "ELEMENT_SET_NO": 999, "REV_AT_EPOCH": 66208, "BSTAR": 0.00270501, "MEAN_MOTION_DOT": 0.00060002, "MEAN_MOTION_DDOT": 0}, "tle": {"line1": "1 30898U 99025AYL 25335.99446732  .00060002  00000+0  27050-2 0  9998", "line2": "2 30898  99.0257 245.3350 0039910 146.5036 213.8730 15.20079673662087"}}, "geometry": {"type": "Point", "coordinates": [103.1030534810362, 74.08902382236539]}}, {"type": "Feature", "properties": {"norad_id": 30903, "name": "FENGYUN 1C DEB", "group": "fengyun-1c-debris", "lat": -62.43805260726006, "lon": 26.253997933043145, "alt_km": 954.7004501739648, "timestamp": "2025-12-05T05:43:15.388924+00:00", "meta": {"OBJECT_NAME": "FENGYUN 1C DEB", "OBJECT_ID": "1999-025AYR", "EPOCH": "2025-12-03T09:36:42.765408", "MEAN_MOTION": 13.97589704, "ECCENTRICITY": 0.00968077, "INCLINATION": 99.3708, "RA_OF_ASC_NODE": 222.8235, "ARG_OF_PERICENTER": 118.3533, "MEAN_ANOMALY": 242.7433, "EPHEMERIS_TYPE": 0, "CLASSIFICATION_TYPE": "U", "NORAD_CAT_ID": 30903, "ELEMENT_SET_NO": 999, "REV_AT_EPOCH": 68574, "BSTAR": 0.00045958219, "MEAN_MOTION_DOT": 6.28e-06, "MEAN_MOTION_DDOT": 0}, "tle": {"line1": "1 30903U 99025AYR 25337.40049497  .00000628  00000+0  45958-3 0  9996", "line2": "2 30903  99.3708 222.8235 0096807 118.3533 242.7433 13.97589704685749"}}, "geometry": {"type": "Point", "coordinates": [26.253997933043145, -62.43805260726006]}}, {"type": "Feature", "properties": {"norad_id": 30905, "name": "FENGYUN 1C DEB", "group": "fengyun-1c-debris", "lat": 49.41100981685256, "lon": 44.103942116461155, "alt_km": 802.6434505253756, "timestamp": "2025-12-05T05:43:15.388934+00:00", "meta": {"OBJECT_NAME": "FENGYUN 1C DEB", "OBJECT_ID": "1999-025AYT", "EPOCH": "2025-12-03T22:59:52.971936", "MEAN_MOTION": 14.17765795, "ECCENTRICITY": 0.00571678, "INCLINATION": 98.8899, "RA_OF_ASC_NODE": 53.3489, "ARG_OF_PERICENTER": 105.6737, "MEAN_ANOMALY": 255.0755, "EPHEMERIS_TYPE": 0, "CLASSIFICATION_TYPE": "U", "NORAD_CAT_ID": 30905, "ELEMENT_SET_NO": 999, "REV_AT_EPOCH": 95998, "BSTAR": 0.0032148295, "MEAN_MOTION_DOT": 6.622e-05, "MEAN_MOTION_DDOT": 0}, "tle": {"line1": "1 30905U 99025AYT 25337.95825199  .00006622  00000+0  32148-2 0  9995", "line2": "2 30905  98.8899  53.3489 0057167 105.6737 255.0755 14.17765795959988"}}, "geometry": {"type": "Point", "coordinates": [44.103942116461155, 49.41100981685256]}}, {"type": "Feature", "properties": {"norad_id": 30912, "name": "FENGYUN 1C DEB", "group": "fengyun-1c-debris", "lat": -21.578991956555235, "lon": -4.095258199263135, "alt_km": 598.8473316309446, "timestamp": "2025-12-05T05:43:15.388944+00:00", "meta": {"OBJECT_NAME": "FENGYUN 1C DEB", "OBJECT_ID": "1999-025AZA", "EPOCH": "2025-12-03T12:30:12.813696", "MEAN_MOTION": 14.88965288, "ECCENTRICITY": 0.00592375, "INCLINATION": 98.9966, "RA_OF_ASC_NODE": 177.5478, "ARG_OF_PERICENTER": 127.2507, "MEAN_ANOMALY": 233.4131, "EPHEMERIS_TYPE": 0, "CLASSIFICATION_TYPE": "U", "NORAD_CAT_ID": 30912, "ELEMENT_SET_NO": 999, "REV_AT_EPOCH": 99267, "BSTAR": 0.0019833525, "MEAN_MOTION_DOT": 0.00019237, "MEAN_MOTION_DDOT": 0}, "tle": {"line1": "1 30912U 99025AZA 25337.52098164  .00019237  00000+0  19834-2 0  9993", "line2": "2 30912  98.9966 177.5478 0059237 127.2507 233.4131 14.88965288992672"}}, "geometry": {"type": "Point", "coordinates": [-4.095258199263135, -21.578991956555235]}}, {"type": "Feature", "properties": {"norad_id": 30913, "name": "FENGYUN 1C DEB", "group": "fengyun-1c-debris", "lat": 57.9294485674112, "lon": -159.32228994667588, "alt_km": 865.6734328702878, "timestamp": "2025-12-05T05:43:15.388954+00:00", "meta": {"OBJECT_NAME": "FENGYUN 1C DEB", "OBJECT_ID": "1999-025AZB", "EPOCH": "2025-12-02T20:44:20.475168", "MEAN_MOTION": 14.04919421, "ECCENTRICITY": 0.00482602, "INCLINATION": 98.747, "RA_OF_ASC_NODE": 4.1652, "ARG_OF_PERICENTER": 208.8355, "MEAN_ANOMALY": 151.0144, "EPHEMERIS_TYPE": 0, "CLASSIFICATION_TYPE": "U", "NORAD_CAT_ID": 30913, "ELEMENT_SET_NO": 999, "REV_AT_EPOCH": 95779, "BSTAR": 0.0009232793, "MEAN_MOTION_DOT": 1.457e-05, "MEAN_MOTION_DDOT": 0}, "tle": {"line1": "1 30913U 99025AZB 25336.86412587  .00001457  00000+0  92328-3 0  9994", "line2": "2 30913  98.7470   4.1652 0048260 208.8355 151.0144 14.04919421957790"}}, "geometry": {"type": "Point", "coordinates": [-159.32228994667588, 57.9294485674112]}}]}